{"type": "FeatureCollection", "features": [ {"type": "Feature", "properties": {"norad_id": 32384, "name": "GPS BIIRM-5 (PRN 29)", "group": "gps-ops", "lat": 54.16968427438845, "lon": -4.451935023176899, "alt_km": 20161.577128954003, "timestamp": "2025-12-22T15:43:49.262734+00:00", "meta": {"OBJECT_NAME": "GPS BIIRM-5 (PRN 29)", "OBJECT_ID": "2007-062A", "EPOCH": "2025-12-19T04:08:10.010976", "MEAN_MOTION": 2.00577702, "ECCENTRICITY": 0.00322663, "INCLINATION": 55.1765, "RA_OF_ASC_NODE": 281.388, "ARG_OF_PERICENTER": 162.2119, "MEAN_ANOMALY": 283.9132, "EPHEMERIS_TYPE": 0, "CLASSIFICATION_TYPE": "U", "NORAD_CAT_ID": 32384, "ELEMENT_SET_NO": 999, "REV_AT_EPOCH": 13190, "BSTAR": 0, "MEAN_MOTION_DOT": -3.8e-07, "MEAN_MOTION_DDOT": 0}, "tle": {"line1": "1 32384U 07062A   25353.17233809 -.00000038  00000+0  00000+0 0  9996", "line2": "2 32384  55.1765 281.3880 0032266 162.2119 283.9132  2.00577702131904"}}, "geometry": {"type": "Point", "coordinates": [-4.451935023176899, 54.16968427438845]}}, {"type": "Feature", "properties": {"norad_id": 32711, "name": "GPS BIIRM-6 (PRN 07)", "group": "gps-ops", "lat": 5.895220465264476, "lon": 161.19779917932024, "alt_km": 20460.344065639216, "timestamp": "2025-12-22T15:43:49.262746+00:00", "meta": {"OBJECT_NAME": "GPS BIIRM-6 (PRN 07)", "OBJECT_ID": "2008-012A", "EPOCH": "2025-12-21T15:33:12.168000", "MEAN_MOTION": 2.00566008, "ECCENTRICITY": 0.02028329, "INCLINATION": 54.478, "RA_OF_ASC_NODE": 157.0174, "ARG_OF_PERICENTER": 245.0507, "MEAN_ANOMALY": 112.8153, "EPHEMERIS_TYPE": 0, "CLASSIFICATION_TYPE": "U", "NORAD_CAT_ID": 32711, "ELEMENT_SET_NO": 999, "REV_AT_EPOCH": 13019, "BSTAR": 0, "MEAN_MOTION_DOT": 7e-07, "MEAN_MOTION_DDOT": 0}, "tle": {"line1": "1 32711U 08012A   25355.64805750  .00000070  00000+0  00000+0 0  9995", "line2": "2 32711  54.4780 157.0174 0202832 245.0507 112.8153  2.00566008130191"}}, "geometry": {"type": "Point", "coordinates": [161.19779917932024, 5.895220465264476]}}, {"type": "Feature", "properties": {"norad_id": 35752, "name": "GPS BIIRM-8 (PRN 05)", "group": "gps-ops", "lat": 20.20397521192553, "lon": 48.73193711674585, "alt_km": 20104.66043004858, "timestamp": "2025-12-22T15:43:49.262758+00:00", "meta": {"OBJECT_NAME": "GPS BIIRM-8 (PRN 05)", "OBJECT_ID": "2009-043A", "EPOCH": "2025-12-20T02:09:52.509312", "MEAN_MOTION": 2.00565329, "ECCENTRICITY": 0.00516467, "INCLINATION": 56.096, "RA_OF_ASC_NODE": 34.4932, "ARG_OF_PERICENTER": 81.7821, "MEAN_ANOMALY": 251.1308, "EPHEMERIS_TYPE": 0, "CLASSIFICATION_TYPE": "U", "NORAD_CAT_ID": 35752, "ELEMENT_SET_NO": 999, "REV_AT_EPOCH": 11976, "BSTAR": 0, "MEAN_MOTION_DOT": -6.1e-07, "MEAN_MOTION_DDOT": 0}, "tle": {"line1": "1 35752U 09043A   25354.09019108 -.00000061  00000+0  00000+0 0  9991", "line2": "2 35752  56.0960  34.4932 0051646  81.7821 251.1308  2.00565329119760"}}, "geometry": {"type": "Point", "coordinates": [48.73193711674585, 20.20397521192553]}}, {"type": "Feature", "properties": {"norad_id": 36585, "name": "GPS BIIF-1  (PRN 25)", "group": "gps-ops", "lat": 28.069998241463164, "lon": 13.139606200988899, "alt_km": 20113.581233979483, "timestamp": "2025-12-22T15:43:49.262769+00:00", "meta": {"OBJECT_NAME": "GPS BIIF-1  (PRN 25)", "OBJECT_ID": "2010-022A", "EPOCH": "2025-12-22T05:20:22.074144", "MEAN_MOTION": 2.00553706, "ECCENTRICITY": 0.01264918, "INCLINATION": 54.2987, "RA_OF_ASC_NODE": 215.6915, "ARG_OF_PERICENTER": 65.1953, "MEAN_ANOMALY": 125.3997, "EPHEMERIS_TYPE": 0, "CLASSIFICATION_TYPE": "U", "NORAD_CAT_ID": 36585, "ELEMENT_SET_NO": 999, "REV_AT_EPOCH": 11404, "BSTAR": 0, "MEAN_MOTION_DOT": 7.4e-07, "MEAN_MOTION_DDOT": 0}, "tle": {"line1": "1 36585U 10022A   25356.22247771  .00000074  00000+0  00000+0 0  9994", "line2": "2 36585  54.2987 215.6915 0126491  65.1953 125.3997  2.00553706114049"}}, "geometry": {"type": "Point", "coordinates": [13.139606200988899, 28.069998241463164]}}, {"type": "Feature", "properties": {"norad_id": 38833, "name": "GPS BIIF-3  (PRN 24)", "group": "gps-ops", "lat": -44.84288739890778, "lon": 18.11106082913077, "alt_km": 20653.63404091908, "timestamp": "2025-12-22T15:43:49.262781+00:00", "meta": {"OBJECT_NAME": "GPS BIIF-3  (PRN 24)", "OBJECT_ID": "2012-053A", "EPOCH": "2025-12-21T19:48:37.678176", "MEAN_MOTION": 2.0056507, "ECCENTRICITY": 0.01760152, "INCLINATION": 53.5594, "RA_OF_ASC_NODE": 150.8666, "ARG_OF_PERICENTER": 64.1278, "MEAN_ANOMALY": 297.6511, "EPHEMERIS_TYPE": 0, "CLASSIFICATION_TYPE": "U", "NORAD_CAT_ID": 38833, "ELEMENT_SET_NO": 999, "REV_AT_EPOCH": 9588, "BSTAR": 0, "MEAN_MOTION_DOT": 6.3e-07, "MEAN_MOTION_DDOT": 0}, "tle": {"line1": "1 38833U 12053A   25355.82543609  .00000063  00000+0  00000+0 0  9990", "line2": "2 38833  53.5594 150.8666 0176015  64.1278 297.6511  2.00565070 95884"}}, "geometry": {"type": "Point", "coordinates": [18.11106082913077, -44.84288739890778]}}, {"type": "Feature", "properties": {"norad_id": 39166, "name": "GPS BIIF-4  (PRN 27)", "group": "gps-ops", "lat": -18.52269117310204, "lon": -97.58164584035582, "alt_km": 20064.082594598, "timestamp": "2025-12-22T15:43:49.262793+00:00", "meta": {"OBJECT_NAME": "GPS BIIF-4  (PRN 27)", "OBJECT_ID": "2013-023A", "EPOCH": "2025-12-21T04:35:02.241888", "MEAN_MOTION": 2.00564674, "ECCENTRICITY": 0.0138431, "INCLINATION": 54.6447, "RA_OF_ASC_NODE": 276.2247, "ARG_OF_PERICENTER": 48.7169, "MEAN_ANOMALY": 312.5052, "EPHEMERIS_TYPE": 0, "CLASSIFICATION_TYPE": "U", "NORAD_CAT_ID": 39166, "ELEMENT_SET_NO": 999, "REV_AT_EPOCH": 9231, "BSTAR": 0, "MEAN_MOTION_DOT": -1.7e-07, "MEAN_MOTION_DDOT": 0}, "tle": {"line1": "1 39166U 13023A   25355.19099817 -.00000017  00000+0  00000+0 0  9995", "line2": "2 39166  54.6447 276.2247 0138431  48.7169 312.5052  2.00564674 92319"}}, "geometry": {"type": "Point", "coordinates": [-97.58164584035582, -18.52269117310204]}}, {"type": "Feature", "properties": {"norad_id": 39533, "name": "GPS BIIF-5  (PRN 30)", "group": "gps-ops", "lat": -14.545495686950805, "lon": 145.51242123221056, "alt_km": 20275.77485818431, "timestamp": "2025-12-22T15:43:49.262804+00:00", "meta": {"OBJECT_NAME": "GPS BIIF-5  (PRN 30)", "OBJECT_ID": "2014-008A", "EPOCH": "2025-12-20T16:28:24.690432", "MEAN_MOTION": 2.00548724, "ECCENTRICITY": 0.00795742, "INCLINATION": 53.6246, "RA_OF_ASC_NODE": 156.6308, "ARG_OF_PERICENTER": 226.1122, "MEAN_ANOMALY": 133.2164, "EPHEMERIS_TYPE": 0, "CLASSIFICATION_TYPE": "U", "NORAD_CAT_ID": 39533, "ELEMENT_SET_NO": 999, "REV_AT_EPOCH": 8610, "BSTAR": 0, "MEAN_MOTION_DOT": 6.5e-07, "MEAN_MOTION_DDOT": 0}, "tle": {"line1": "1 39533U 14008A   25354.68639688  .00000065  00000+0  00000+0 0  9998", "line2": "2 39533  53.6246 156.6308 0079574 226.1122 133.2164  2.00548724 86105"}}, "geometry": {"type": "Point", "coordinates": [145.51242123221056, -14.545495686950805]}}, {"type": "Feature", "properties": {"norad_id": 39741, "name": "GPS BIIF-6  (PRN 06)", "group": "gps-ops", "lat": 34.84727034108811, "lon": 131.0131161227705, "alt_km": 20282.965150236167, "timestamp": "2025-12-22T15:43:49.262816+00:00", "meta": {"OBJECT_NAME": "GPS BIIF-6  (PRN 06)", "OBJECT_ID": "2014-026A", "EPOCH": "2025-12-21T23:12:34.799616", "MEAN_MOTION": 2.00560759, "ECCENTRICITY": 0.00394103, "INCLINATION": 56.58, "RA_OF_ASC_NODE": 338.4177, "ARG_OF_PERICENTER": 319.2097, "MEAN_ANOMALY": 40.4995, "EPHEMERIS_TYPE": 0, "CLASSIFICATION_TYPE": "U", "NORAD_CAT_ID": 39741, "ELEMENT_SET_NO": 999, "REV_AT_EPOCH": 8498, "BSTAR": 0, "MEAN_MOTION_DOT": -6.8e-07, "MEAN_MOTION_DDOT": 0}, "tle": {"line1": "1 39741U 14026A   25355.96706944 -.00000068  00000+0  00000+0 0  9995", "line2": "2 39741  56.5800 338.4177 0039410 319.2097  40.4995  2.00560759 84985"}}, "geometry": {"type": "Point", "coordinates": [131.0131161227705, 34.84727034108811]}}, {"type": "Feature", "properties": {"norad_id": 40105, "name": "GPS BIIF-7  (PRN 09)", "group": "gps-ops", "lat": 52.30592157504844, "lon": 159.34077118654253, "alt_km": 20115.054844368176, "timestamp": "2025-12-22T15:43:49.262828+00:00", "meta": {"OBJECT_NAME": "GPS BIIF-7  (PRN 09)", "OBJECT_ID": "2014-045A", "EPOCH": "2025-12-21T13:19:50.037600", "MEAN_MOTION": 2.00573131, "ECCENTRICITY": 0.00324633, "INCLINATION": 55.2342, "RA_OF_ASC_NODE": 95.5472, "ARG_OF_PERICENTER": 120.1198, "MEAN_ANOMALY": 240.2018, "EPHEMERIS_TYPE": 0, "CLASSIFICATION_TYPE": "U", "NORAD_CAT_ID": 40105, "ELEMENT_SET_NO": 999, "REV_AT_EPOCH": 8251, "BSTAR": 0, "MEAN_MOTION_DOT": -7e-08, "MEAN_MOTION_DDOT": 0}, "tle": {"line1": "1 40105U 14045A   25355.55544025 -.00000007  00000+0  00000+0 0  9990", "line2": "2 40105  55.2342  95.5472 0032463 120.1198 240.2018  2.00573131 82510"}}, "geometry": {"type": "Point", "coordinates": [159.34077118654253, 52.30592157504844]}}, {"type": "Feature", "properties": {"norad_id": 40294, "name": "GPS BIIF-8  (PRN 03)", "group": "gps-ops", "lat": 13.72872430975355, "lon": -151.3958820156386, "alt_km": 20192.257448023345, "timestamp": "2025-12-22T15:43:49.262839+00:00", "meta": {"OBJECT_NAME": "GPS BIIF-8  (PRN 03)", "OBJECT_ID": "2014-068A", "EPOCH": "2025-12-21T10:24:33.832224", "MEAN_MOTION": 2.00565456, "ECCENTRICITY": 0.00608151, "INCLINATION": 56.8641, "RA_OF_ASC_NODE": 37.8098, "ARG_OF_PERICENTER": 69.0115, "MEAN_ANOMALY": 291.7086, "EPHEMERIS_TYPE": 0, "CLASSIFICATION_TYPE": "U", "NORAD_CAT_ID": 40294, "ELEMENT_SET_NO": 999, "REV_AT_EPOCH": 8164, "BSTAR": 0, "MEAN_MOTION_DOT": -5.2e-07, "MEAN_MOTION_DDOT": 0}, "tle": {"line1": "1 40294U 14068A   25355.43372491 -.00000052  00000+0  00000+0 0  9997", "line2": "2 40294  56.8641  37.8098 0060815  69.0115 291.7086  2.00565456 81643"}}, "geometry": {"type": "Point", "coordinates": [-151.3958820156386, 13.72872430975355]}}]}